OPTICUBE 04             
1 41851U 16067D   26068.51005515  .00003771  00000+0  24102-3 0  9992
2 41851  98.0811 275.5525 0017089  94.6311 265.6869 15.09188144510131
STARLINK-4276           
1 53179U 22083AZ  26068.54305976  .00000907  00000+0  75071-4 0  9990
2 53179  53.2161 124.3794 0001504  87.0970 273.0194 15.08840608201892
